{"type": "FeatureCollection", "features": [ {"type": "Feature", "properties": {"norad_id": 33825, "name": "COSMOS 2251 DEB", "group": "cosmos-2251-debris", "lat": -61.33534296061978, "lon": 11.96995736279682, "alt_km": 656.8129909227209, "timestamp": "2025-12-04T13:52:00.834367+00:00", "meta": {"OBJECT_NAME": "COSMOS 2251 DEB", "OBJECT_ID": "1993-036BS", "EPOCH": "2025-12-04T07:56:28.501152", "MEAN_MOTION": 14.69648212, "ECCENTRICITY": 0.0084134, "INCLINATION": 73.9863, "RA_OF_ASC_NODE": 44.141, "ARG_OF_PERICENTER": 13.2984, "MEAN_ANOMALY": 56.0313, "EPHEMERIS_TYPE": 0, "CLASSIFICATION_TYPE": "U", "NORAD_CAT_ID": 33825, "ELEMENT_SET_NO": 999, "REV_AT_EPOCH": 88756, "BSTAR": 0.0019400241, "MEAN_MOTION_DOT": 0.00012176, "MEAN_MOTION_DDOT": 0}, "tle": {"line1": "1 33825U 93036BS  25338.33088543  .00012176  00000+0  19400-2 0  9999", "line2": "2 33825  73.9863  44.1410 0084134  13.2984  56.0313 14.69648212887565"}}, "geometry": {"type": "Point", "coordinates": [11.96995736279682, -61.33534296061978]}}, {"type": "Feature", "properties": {"norad_id": 33826, "name": "COSMOS 2251 DEB", "group": "cosmos-2251-debris", "lat": -5.982488972896404, "lon": 63.504001864900424, "alt_km": 751.6921472038175, "timestamp": "2025-12-04T13:52:00.834378+00:00", "meta": {"OBJECT_NAME": "COSMOS 2251 DEB", "OBJECT_ID": "1993-036BT", "EPOCH": "2025-12-04T07:32:21.166368", "MEAN_MOTION": 14.51590912, "ECCENTRICITY": 0.008416, "INCLINATION": 74.0655, "RA_OF_ASC_NODE": 65.715, "ARG_OF_PERICENTER": 112.7035, "MEAN_ANOMALY": 304.8201, "EPHEMERIS_TYPE": 0, "CLASSIFICATION_TYPE": "U", "NORAD_CAT_ID": 33826, "ELEMENT_SET_NO": 999, "REV_AT_EPOCH": 87647, "BSTAR": 0.0037929062, "MEAN_MOTION_DOT": 0.00015916, "MEAN_MOTION_DDOT": 0}, "tle": {"line1": "1 33826U 93036BT  25338.31413387  .00015916  00000+0  37929-2 0  9997", "line2": "2 33826  74.0655  65.7150 0084160 112.7035 304.8201 14.51590912876470"}}, "geometry": {"type": "Point", "coordinates": [63.504001864900424, -5.982488972896404]}}, {"type": "Feature", "properties": {"norad_id": 33828, "name": "COSMOS 2251 DEB", "group": "cosmos-2251-debris", "lat": 66.60172829028548, "lon": 31.887112880955005, "alt_km": 753.4724655686168, "timestamp": "2025-12-04T13:52:00.834388+00:00", "meta": {"OBJECT_NAME": "COSMOS 2251 DEB", "OBJECT_ID": "1993-036BV", "EPOCH": "2025-12-04T05:37:27.160032", "MEAN_MOTION": 14.44287527, "ECCENTRICITY": 0.00293445, "INCLINATION": 74.0475, "RA_OF_ASC_NODE": 253.9048, "ARG_OF_PERICENTER": 328.1535, "MEAN_ANOMALY": 153.9355, "EPHEMERIS_TYPE": 0, "CLASSIFICATION_TYPE": "U", "NORAD_CAT_ID": 33828, "ELEMENT_SET_NO": 999, "REV_AT_EPOCH": 88190, "BSTAR": 0.001175644, "MEAN_MOTION_DOT": 4.039e-05, "MEAN_MOTION_DDOT": 0}, "tle": {"line1": "1 33828U 93036BV  25338.23434213  .00004039  00000+0  11756-2 0  9995", "line2": "2 33828  74.0475 253.9048 0029344 328.1535 153.9355 14.44287527881904"}}, "geometry": {"type": "Point", "coordinates": [31.887112880955005, 66.60172829028548]}}, {"type": "Feature", "properties": {"norad_id": 33830, "name": "COSMOS 2251 DEB", "group": "cosmos-2251-debris", "lat": 65.86849275694222, "lon": 26.640708077821046, "alt_km": 637.9764241828343, "timestamp": "2025-12-04T13:52:00.834398+00:00", "meta": {"OBJECT_NAME": "COSMOS 2251 DEB", "OBJECT_ID": "1993-036BX", "EPOCH": "2025-12-04T05:47:58.578144", "MEAN_MOTION": 14.76719026, "ECCENTRICITY": 0.00421805, "INCLINATION": 74.0335, "RA_OF_ASC_NODE": 247.0239, "ARG_OF_PERICENTER": 8.9027, "MEAN_ANOMALY": 112.6851, "EPHEMERIS_TYPE": 0, "CLASSIFICATION_TYPE": "U", "NORAD_CAT_ID": 33830, "ELEMENT_SET_NO": 999, "REV_AT_EPOCH": 89346, "BSTAR": 0.0024056886, "MEAN_MOTION_DOT": 0.00017104, "MEAN_MOTION_DDOT": 0}, "tle": {"line1": "1 33830U 93036BX  25338.24165021  .00017104  00000+0  24057-2 0  9992", "line2": "2 33830  74.0335 247.0239 0042180   8.9027 112.6851 14.76719026893466"}}, "geometry": {"type": "Point", "coordinates": [26.640708077821046, 65.86849275694222]}}, {"type": "Feature", "properties": {"norad_id": 33832, "name": "COSMOS 2251 DEB", "group": "cosmos-2251-debris", "lat": -73.26290575257885, "lon": 153.6119492791198, "alt_km": 681.2596335764774, "timestamp": "2025-12-04T13:52:00.834408+00:00", "meta": {"OBJECT_NAME": "COSMOS 2251 DEB", "OBJECT_ID": "1993-036BZ", "EPOCH": "2025-12-04T03:26:00.676032", "MEAN_MOTION": 14.60469448, "ECCENTRICITY": 0.00255921, "INCLINATION": 74.0551, "RA_OF_ASC_NODE": 226.3743, "ARG_OF_PERICENTER": 259.172, "MEAN_ANOMALY": 251.1656, "EPHEMERIS_TYPE": 0, "CLASSIFICATION_TYPE": "U", "NORAD_CAT_ID": 33832, "ELEMENT_SET_NO": 999, "REV_AT_EPOCH": 88299, "BSTAR": 0.0029533891, "MEAN_MOTION_DOT": 0.00014386, "MEAN_MOTION_DDOT": 0}, "tle": {"line1": "1 33832U 93036BZ  25338.14306338  .00014386  00000+0  29534-2 0  9995", "line2": "2 33832  74.0551 226.3743 0025592 259.1720 251.1656 14.60469448882997"}}, "geometry": {"type": "Point", "coordinates": [153.6119492791198, -73.26290575257885]}}, {"type": "Feature", "properties": {"norad_id": 33835, "name": "COSMOS 2251 DEB", "group": "cosmos-2251-debris", "lat": 58.42622564914404, "lon": 144.44035987720972, "alt_km": 693.7470596809044, "timestamp": "2025-12-04T13:52:00.834419+00:00", "meta": {"OBJECT_NAME": "COSMOS 2251 DEB", "OBJECT_ID": "1993-036CC", "EPOCH": "2025-12-02T19:28:26.300928", "MEAN_MOTION": 14.62061225, "ECCENTRICITY": 0.00557211, "INCLINATION": 74.0555, "RA_OF_ASC_NODE": 120.095, "ARG_OF_PERICENTER": 176.3218, "MEAN_ANOMALY": 313.2995, "EPHEMERIS_TYPE": 0, "CLASSIFICATION_TYPE": "U", "NORAD_CAT_ID": 33835, "ELEMENT_SET_NO": 999, "REV_AT_EPOCH": 88644, "BSTAR": 0.0016115926, "MEAN_MOTION_DOT": 8.252e-05, "MEAN_MOTION_DDOT": 0}, "tle": {"line1": "1 33835U 93036CC  25336.81141552  .00008252  00000+0  16116-2 0  9992", "line2": "2 33835  74.0555 120.0950 0055721 176.3218 313.2995 14.62061225886446"}}, "geometry": {"type": "Point", "coordinates": [144.44035987720972, 58.42622564914404]}}, {"type": "Feature", "properties": {"norad_id": 33836, "name": "COSMOS 2251 DEB", "group": "cosmos-2251-debris", "lat": -57.78931522307313, "lon": -112.0469581539394, "alt_km": 653.3935774505608, "timestamp": "2025-12-04T13:52:00.834429+00:00", "meta": {"OBJECT_NAME": "COSMOS 2251 DEB", "OBJECT_ID": "1993-036CD", "EPOCH": "2025-12-04T06:34:35.632992", "MEAN_MOTION": 14.79355493, "ECCENTRICITY": 0.00224427, "INCLINATION": 73.9977, "RA_OF_ASC_NODE": 275.651, "ARG_OF_PERICENTER": 131.9482, "MEAN_ANOMALY": 349.3006, "EPHEMERIS_TYPE": 0, "CLASSIFICATION_TYPE": "U", "NORAD_CAT_ID": 33836, "ELEMENT_SET_NO": 999, "REV_AT_EPOCH": 63963, "BSTAR": 0.003307709, "MEAN_MOTION_DOT": 0.00024809, "MEAN_MOTION_DDOT": 0}, "tle": {"line1": "1 33836U 93036CD  25338.27402353  .00024809  00000+0  33077-2 0  9995", "line2": "2 33836  73.9977 275.6510 0022442 131.9482 349.3006 14.79355493639637"}}, "geometry": {"type": "Point", "coordinates": [-112.0469581539394, -57.78931522307313]}}, {"type": "Feature", "properties": {"norad_id": 33837, "name": "COSMOS 2251 DEB", "group": "cosmos-2251-debris", "lat": 41.24153200458802, "lon": 85.52085138758356, "alt_km": 728.1189064967921, "timestamp": "2025-12-04T13:52:00.834439+00:00", "meta": {"OBJECT_NAME": "COSMOS 2251 DEB", "OBJECT_ID": "1993-036CE", "EPOCH": "2025-12-04T07:02:51.975168", "MEAN_MOTION": 14.50673567, "ECCENTRICITY": 0.00356636, "INCLINATION": 74.0129, "RA_OF_ASC_NODE": 71.4984, "ARG_OF_PERICENTER": 294.6052, "MEAN_ANOMALY": 65.1394, "EPHEMERIS_TYPE": 0, "CLASSIFICATION_TYPE": "U", "NORAD_CAT_ID": 33837, "ELEMENT_SET_NO": 999, "REV_AT_EPOCH": 88673, "BSTAR": 0.00055836458, "MEAN_MOTION_DOT": 2.183e-05, "MEAN_MOTION_DDOT": 0}, "tle": {"line1": "1 33837U 93036CE  25338.29365712  .00002183  00000+0  55836-3 0  9994", "line2": "2 33837  74.0129  71.4984 0035663 294.6052  65.1394 14.50673567886737"}}, "geometry": {"type": "Point", "coordinates": [85.52085138758356, 41.24153200458802]}}, {"type": "Feature", "properties": {"norad_id": 33838, "name": "COSMOS 2251 DEB", "group": "cosmos-2251-debris", "lat": -14.912778737469317, "lon": 160.72606786523588, "alt_km": 724.6977324650125, "timestamp": "2025-12-04T13:52:00.834449+00:00", "meta": {"OBJECT_NAME": "COSMOS 2251 DEB", "OBJECT_ID": "1993-036CF", "EPOCH": "2025-12-04T06:27:01.333152", "MEAN_MOTION": 14.48324796, "ECCENTRICITY": 0.00273892, "INCLINATION": 74.0357, "RA_OF_ASC_NODE": 165.6768, "ARG_OF_PERICENTER": 288.6837, "MEAN_ANOMALY": 245.0662, "EPHEMERIS_TYPE": 0, "CLASSIFICATION_TYPE": "U", "NORAD_CAT_ID": 33838, "ELEMENT_SET_NO": 999, "REV_AT_EPOCH": 88446, "BSTAR": 0.00069074328, "MEAN_MOTION_DOT": 2.568e-05, "MEAN_MOTION_DDOT": 0}, "tle": {"line1": "1 33838U 93036CF  25338.26876543  .00002568  00000+0  69074-3 0  9997", "line2": "2 33838  74.0357 165.6768 0027389 288.6837 245.0662 14.48324796884466"}}, "geometry": {"type": "Point", "coordinates": [160.72606786523588, -14.912778737469317]}}, {"type": "Feature", "properties": {"norad_id": 33839, "name": "COSMOS 2251 DEB", "group": "cosmos-2251-debris", "lat": 19.751953076328135, "lon": 36.264951160115224, "alt_km": 738.5990512414573, "timestamp": "2025-12-04T13:52:00.834459+00:00", "meta": {"OBJECT_NAME": "COSMOS 2251 DEB", "OBJECT_ID": "1993-036CG", "EPOCH": "2025-12-03T03:25:22.042272", "MEAN_MOTION": 14.64373974, "ECCENTRICITY": 0.00848223, "INCLINATION": 74.0399, "RA_OF_ASC_NODE": 224.9194, "ARG_OF_PERICENTER": 339.2319, "MEAN_ANOMALY": 177.3871, "EPHEMERIS_TYPE": 0, "CLASSIFICATION_TYPE": "U", "NORAD_CAT_ID": 33839, "ELEMENT_SET_NO": 999, "REV_AT_EPOCH": 89439, "BSTAR": 0.00040044968, "MEAN_MOTION_DOT": 2.197e-05, "MEAN_MOTION_DDOT": 0}, "tle": {"line1": "1 33839U 93036CG  25337.14261623  .00002197  00000+0  40045-3 0  9996", "line2": "2 33839  74.0399 224.9194 0084822 339.2319 177.3871 14.64373974894390"}}, "geometry": {"type": "Point", "coordinates": [36.264951160115224, 19.751953076328135]}}]}